{
  "divisions": [
    {
      "name": "Dhaka",
      "nameBn": "ঢাকা",
      "districts": [
        {
          "name": "Dhaka",
          "nameBn": "ঢাকা",
          "upazilas": ["Dhamrai", "Dohar", "Keraniganj", "Nawabganj", "Savar"]
        },
        {
          "name": "Gazipur",
          "nameBn": "গাজীপুর",
          "upazilas": ["Gazipur Sadar", "Kaliakair", "Kaliganj", "Kapasia", "Sreepur"]
        },
        {
          "name": "Kishoreganj",
          "nameBn": "কিশোরগঞ্জ",
          "upazilas": ["Austagram", "Bajitpur", "Bhairab", "Hossainpur", "Itna", "Karimganj", "Katiadi", "Kishoreganj Sadar", "Kuliarchar", "Mithamain", "Nikli", "Pakundia", "Tarail"]
        },
        {
          "name": "Manikganj",
          "nameBn": "মানিকগঞ্জ",
          "upazilas": ["Daulatpur", "Ghior", "Harirampur", "Manikganj Sadar", "Saturia", "Shivalaya", "Singair"]
        },
        {
          "name": "Munshiganj",
          "nameBn": "মুন্সীগঞ্জ",
          "upazilas": ["Gazaria", "Lohajang", "Munshiganj Sadar", "Sirajdikhan", "Sreenagar", "Tongibari"]
        },
        {
          "name": "Narayanganj",
          "nameBn": "নারায়ণগঞ্জ",
          "upazilas": ["Araihazar", "Bandar", "Narayanganj Sadar", "Rupganj", "Sonargaon"]
        },
        {
          "name": "Narsingdi",
          "nameBn": "নরসিংদী",
          "upazilas": ["Belabo", "Monohardi", "Narsingdi Sadar", "Palash", "Raipura", "Shibpur"]
        },
        {
          "name": "Tangail",
          "nameBn": "টাঙ্গাইল",
          "upazilas": ["Basail", "Bhuapur", "Delduar", "Dhanbari", "Ghatail", "Gopalpur", "Kalihati", "Madhupur", "Mirzapur", "Nagarpur", "Sakhipur", "Tangail Sadar"]
        },
        {
          "name": "Faridpur",
          "nameBn": "ফরিদপুর",
          "upazilas": ["Alfadanga", "Bhanga", "Boalmari", "Charbhadrasan", "Faridpur Sadar", "Madhukhali", "Nagarkanda", "Sadarpur", "Saltha"]
        },
        {
          "name": "Gopalganj",
          "nameBn": "গোপালগঞ্জ",
          "upazilas": ["Gopalganj Sadar", "Kashiani", "Kotalipara", "Muksudpur", "Tungipara"]
        },
        {
          "name": "Madaripur",
          "nameBn": "মাদারীপুর",
          "upazilas": ["Kalkini", "Madaripur Sadar", "Rajoir", "Shibchar"]
        },
        {
          "name": "Rajbari",
          "nameBn": "রাজবাড়ী",
          "upazilas": ["Baliakandi", "Goalanda", "Kalukhali", "Pangsha", "Rajbari Sadar"]
        },
        {
          "name": "Shariatpur",
          "nameBn": "শরীয়তপুর",
          "upazilas": ["Bhedarganj", "Damudya", "Gosairhat", "Naria", "Shariatpur Sadar", "Zajira"]
        }
      ]
    },
    {
      "name": "Chattogram",
      "nameBn": "চট্টগ্রাম",
      "districts": [
        {
          "name": "Chattogram",
          "nameBn": "চট্টগ্রাম",
          "upazilas": ["Anwara", "Banshkhali", "Boalkhali", "Chandanaish", "Fatikchhari", "Hathazari", "Karnaphuli", "Lohagara", "Mirsharai", "Patiya", "Rangunia", "Raozan", "Sandwip", "Satkania", "Sitakunda"]
        },
        {
          "name": "Cox's Bazar",
          "nameBn": "কক্সবাজার",
          "upazilas": ["Chakaria", "Cox's Bazar Sadar", "Kutubdia", "Maheshkhali", "Pekua", "Ramu", "Teknaf", "Ukhia"]
        },
        {
          "name": "Comilla",
          "nameBn": "কুমিল্লা",
          "upazilas": ["Barura", "Brahmanpara", "Burichang", "Chandina", "Chauddagram", "Comilla Sadar", "Comilla Sadar South", "Daudkandi", "Debidwar", "Homna", "Laksam", "Meghna", "Monohorgonj", "Muradnagar", "Nangalkot", "Titas"]
        },
        {
          "name": "Feni",
          "nameBn": "ফেনী",
          "upazilas": ["Chhagalnaiya", "Daganbhuiyan", "Feni Sadar", "Fulgazi", "Parshuram", "Sonagazi"]
        },
        {
          "name": "Brahmanbaria",
          "nameBn": "ব্রাহ্মণবাড়িয়া",
          "upazilas": ["Akhaura", "Ashuganj", "Bancharampur", "Brahmanbaria Sadar", "Bijoynagar", "Kasba", "Nabinagar", "Nasirnagar", "Sarail"]
        },
        {
          "name": "Chandpur",
          "nameBn": "চাঁদপুর",
          "upazilas": ["Chandpur Sadar", "Faridganj", "Haimchar", "Haziganj", "Kachua", "Matlab Dakshin", "Matlab Uttar", "Shahrasti"]
        },
        {
          "name": "Lakshmipur",
          "nameBn": "লক্ষ্মীপুর",
          "upazilas": ["Kamalnagar", "Lakshmipur Sadar", "Raipur", "Ramganj", "Ramgati"]
        },
        {
          "name": "Noakhali",
          "nameBn": "নোয়াখালী",
          "upazilas": ["Begumganj", "Chatkhil", "Companiganj", "Hatiya", "Kabirhat", "Noakhali Sadar", "Senbagh", "Sonaimuri", "Subarnachar"]
        },
        {
          "name": "Rangamati",
          "nameBn": "রাঙামাটি",
          "upazilas": ["Bagaichhari", "Barkal", "Belaichhari", "Juraichhari", "Kaptai", "Kawkhali", "Langadu", "Naniarchar", "Rajasthali", "Rangamati Sadar"]
        },
        {
          "name": "Khagrachhari",
          "nameBn": "খাগড়াছড়ি",
          "upazilas": ["Dighinala", "Khagrachhari Sadar", "Lakshmichhari", "Mahalchhari", "Manikchhari", "Matiranga", "Panchhari", "Ramgarh"]
        },
        {
          "name": "Bandarban",
          "nameBn": "বান্দরবান",
          "upazilas": ["Alikadam", "Bandarban Sadar", "Lama", "Naikhongchhari", "Rowangchhari", "Ruma", "Thanchi"]
        }
      ]
    },
    {
      "name": "Rajshahi",
      "nameBn": "রাজশাহী",
      "districts": [
        {
          "name": "Rajshahi",
          "nameBn": "রাজশাহী",
          "upazilas": ["Bagha", "Bagmara", "Charghat", "Durgapur", "Godagari", "Mohanpur", "Paba", "Puthia", "Tanore"]
        },
        {
          "name": "Chapainawabganj",
          "nameBn": "চাঁপাইনবাবগঞ্জ",
          "upazilas": ["Bholahat", "Chapainawabganj Sadar", "Gomastapur", "Nachole", "Shibganj"]
        },
        {
          "name": "Naogaon",
          "nameBn": "নওগাঁ",
          "upazilas": ["Atrai", "Badalgachhi", "Dhamoirhat", "Manda", "Mohadevpur", "Naogaon Sadar", "Niamatpur", "Patnitala", "Porsha", "Raninagar", "Sapahar"]
        },
        {
          "name": "Natore",
          "nameBn": "নাটোর",
          "upazilas": ["Bagatipara", "Baraigram", "Gurudaspur", "Lalpur", "Natore Sadar", "Singra"]
        },
        {
          "name": "Nawabganj",
          "nameBn": "নবাবগঞ্জ",
          "upazilas": ["Bholahat", "Gomastapur", "Nachole", "Nawabganj Sadar", "Shibganj"]
        },
        {
          "name": "Pabna",
          "nameBn": "পাবনা",
          "upazilas": ["Atgharia", "Bera", "Bhangura", "Chatmohar", "Faridpur", "Ishwardi", "Pabna Sadar", "Santhia", "Sujanagar"]
        },
        {
          "name": "Sirajganj",
          "nameBn": "সিরাজগঞ্জ",
          "upazilas": ["Belkuchi", "Chauhali", "Kamarkhanda", "Kazipur", "Raiganj", "Shahjadpur", "Sirajganj Sadar", "Tarash", "Ullahpara"]
        },
        {
          "name": "Bogra",
          "nameBn": "বগুড়া",
          "upazilas": ["Adamdighi", "Bogra Sadar", "Dhunat", "Dhupchanchia", "Gabtali", "Kahaloo", "Nandigram", "Sariakandi", "Shajahanpur", "Sherpur", "Shibganj", "Sonatola"]
        },
        {
          "name": "Joypurhat",
          "nameBn": "জয়পুরহাট",
          "upazilas": ["Akkelpur", "Joypurhat Sadar", "Kalai", "Khetlal", "Panchbibi"]
        }
      ]
    },
    {
      "name": "Khulna",
      "nameBn": "খুলনা",
      "districts": [
        {
          "name": "Khulna",
          "nameBn": "খুলনা",
          "upazilas": ["Batiaghata", "Dacope", "Daulatpur", "Dighalia", "Dumuria", "Khalishpur", "Khan Jahan Ali", "Koyra", "Paikgachha", "Phultala", "Rupsa", "Sonadanga", "Terokhada"]
        },
        {
          "name": "Bagerhat",
          "nameBn": "বাগেরহাট",
          "upazilas": ["Bagerhat Sadar", "Chitalmari", "Fakirhat", "Kachua", "Mollahat", "Mongla", "Morrelganj", "Rampal", "Sarankhola"]
        },
        {
          "name": "Satkhira",
          "nameBn": "সাতক্ষীরা",
          "upazilas": ["Assasuni", "Debhata", "Kalaroa", "Kaliganj", "Satkhira Sadar", "Shyamnagar", "Tala"]
        },
        {
          "name": "Jessore",
          "nameBn": "যশোর",
          "upazilas": ["Abhaynagar", "Bagherpara", "Chaugachha", "Jessore Sadar", "Jhikargachha", "Keshabpur", "Manirampur", "Sharsha"]
        },
        {
          "name": "Magura",
          "nameBn": "মাগুরা",
          "upazilas": ["Magura Sadar", "Mohammadpur", "Shalikha", "Sreepur"]
        },
        {
          "name": "Jhenaidah",
          "nameBn": "ঝিনাইদহ",
          "upazilas": ["Harinakunda", "Jhenaidah Sadar", "Kaliganj", "Kotchandpur", "Maheshpur", "Shailkupa"]
        },
        {
          "name": "Narail",
          "nameBn": "নড়াইল",
          "upazilas": ["Kalia", "Lohagara", "Narail Sadar"]
        },
        {
          "name": "Kushtia",
          "nameBn": "কুষ্টিয়া",
          "upazilas": ["Bheramara", "Daulatpur", "Khoksa", "Kumarkhali", "Kushtia Sadar", "Mirpur"]
        },
        {
          "name": "Chuadanga",
          "nameBn": "চুয়াডাঙ্গা",
          "upazilas": ["Alamdanga", "Chuadanga Sadar", "Damurhuda", "Jibannagar"]
        },
        {
          "name": "Meherpur",
          "nameBn": "মেহেরপুর",
          "upazilas": ["Gangni", "Meherpur Sadar", "Mujibnagar"]
        }
      ]
    },
    {
      "name": "Barishal",
      "nameBn": "বরিশাল",
      "districts": [
        {
          "name": "Barishal",
          "nameBn": "বরিশাল",
          "upazilas": ["Agailjhara", "Babuganj", "Bakerganj", "Banaripara", "Barishal Sadar", "Gournadi", "Hizla", "Mehendiganj", "Muladi", "Wazirpur"]
        },
        {
          "name": "Barguna",
          "nameBn": "বরগুনা",
          "upazilas": ["Amtali", "Bamna", "Barguna Sadar", "Betagi", "Patharghata", "Taltali"]
        },
        {
          "name": "Bhola",
          "nameBn": "ভোলা",
          "upazilas": ["Bhola Sadar", "Burhanuddin", "Char Fasson", "Daulatkhan", "Lalmohan", "Manpura", "Tazumuddin"]
        },
        {
          "name": "Jhalokathi",
          "nameBn": "ঝালকাঠি",
          "upazilas": ["Jhalokathi Sadar", "Kathalia", "Nalchity", "Rajapur"]
        },
        {
          "name": "Patuakhali",
          "nameBn": "পটুয়াখালী",
          "upazilas": ["Bauphal", "Dashmina", "Dumki", "Galachipa", "Kalapara", "Mirzaganj", "Patuakhali Sadar", "Rangabali"]
        },
        {
          "name": "Pirojpur",
          "nameBn": "পিরোজপুর",
          "upazilas": ["Bhandaria", "Kawkhali", "Mathbaria", "Nazirpur", "Nesarabad", "Pirojpur Sadar", "Zianagar"]
        }
      ]
    },
    {
      "name": "Sylhet",
      "nameBn": "সিলেট",
      "districts": [
        {
          "name": "Sylhet",
          "nameBn": "সিলেট",
          "upazilas": ["Balaganj", "Beanibazar", "Bishwanath", "Companiganj", "Dakshin Surma", "Fenchuganj", "Golapganj", "Gowainghat", "Jaintiapur", "Kanaighat", "Osmani Nagar", "Sylhet Sadar", "Zakiganj"]
        },
        {
          "name": "Habiganj",
          "nameBn": "হবিগঞ্জ",
          "upazilas": ["Ajmiriganj", "Bahubal", "Baniyachong", "Chunarughat", "Habiganj Sadar", "Lakhai", "Madhabpur", "Nabiganj", "Shayestaganj"]
        },
        {
          "name": "Moulvibazar",
          "nameBn": "মৌলভীবাজার",
          "upazilas": ["Barlekha", "Juri", "Kamalganj", "Kulaura", "Moulvibazar Sadar", "Rajnagar", "Sreemangal"]
        },
        {
          "name": "Sunamganj",
          "nameBn": "সুনামগঞ্জ",
          "upazilas": ["Bishwamvarpur", "Chhatak", "Dakshin Sunamganj", "Derai", "Dharampasha", "Dowarabazar", "Jagannathpur", "Jamalganj", "Sulla", "Sunamganj Sadar", "Tahirpur"]
        }
      ]
    },
    {
      "name": "Rangpur",
      "nameBn": "রংপুর",
      "districts": [
        {
          "name": "Rangpur",
          "nameBn": "রংপুর",
          "upazilas": ["Badarganj", "Gangachara", "Kaunia", "Mithapukur", "Pirgachha", "Pirganj", "Rangpur Sadar", "Taraganj"]
        },
        {
          "name": "Dinajpur",
          "nameBn": "দিনাজপুর",
          "upazilas": ["Birampur", "Birganj", "Biral", "Bochaganj", "Chirirbandar", "Dinajpur Sadar", "Fulbari", "Ghoraghat", "Hakimpur", "Kaharole", "Khansama", "Nawabganj", "Parbatipur"]
        },
        {
          "name": "Gaibandha",
          "nameBn": "গাইবান্ধা",
          "upazilas": ["Fulchhari", "Gaibandha Sadar", "Gobindaganj", "Palashbari", "Sadullapur", "Saghata", "Sundarganj"]
        },
        {
          "name": "Kurigram",
          "nameBn": "কুড়িগ্রাম",
          "upazilas": ["Bhurungamari", "Char Rajibpur", "Chilmari", "Kurigram Sadar", "Nageshwari", "Phulbari", "Rajarhat", "Raumari", "Ulipur"]
        },
        {
          "name": "Lalmonirhat",
          "nameBn": "লালমনিরহাট",
          "upazilas": ["Aditmari", "Hatibandha", "Kaliganj", "Lalmonirhat Sadar", "Patgram"]
        },
        {
          "name": "Nilphamari",
          "nameBn": "নীলফামারী",
          "upazilas": ["Dimla", "Domar", "Jaldhaka", "Kishoreganj", "Nilphamari Sadar", "Saidpur"]
        },
        {
          "name": "Panchagarh",
          "nameBn": "পঞ্চগড়",
          "upazilas": ["Atwari", "Boda", "Debiganj", "Panchagarh Sadar", "Tetulia"]
        },
        {
          "name": "Thakurgaon",
          "nameBn": "ঠাকুরগাঁও",
          "upazilas": ["Baliadangi", "Haripur", "Pirganj", "Ranisankail", "Thakurgaon Sadar"]
        }
      ]
    },
    {
      "name": "Mymensingh",
      "nameBn": "ময়মনসিংহ",
      "districts": [
        {
          "name": "Mymensingh",
          "nameBn": "ময়মনসিংহ",
          "upazilas": ["Bhaluka", "Dhobaura", "Fulbaria", "Gaffargaon", "Gauripur", "Haluaghat", "Ishwarganj", "Muktagachha", "Mymensingh Sadar", "Nandail", "Phulpur", "Trishal"]
        },
        {
          "name": "Jamalpur",
          "nameBn": "জামালপুর",
          "upazilas": ["Bakshiganj", "Dewanganj", "Islampur", "Jamalpur Sadar", "Madarganj", "Melandaha", "Sarishabari"]
        },
        {
          "name": "Netrokona",
          "nameBn": "নেত্রকোণা",
          "upazilas": ["Atpara", "Barhatta", "Durgapur", "Kalmakanda", "Kendua", "Khaliajuri", "Madan", "Mohanganj", "Netrokona Sadar", "Purbadhala"]
        },
        {
          "name": "Sherpur",
          "nameBn": "শেরপুর",
          "upazilas": ["Jhenaigati", "Nakla", "Nalitabari", "Sherpur Sadar", "Sreebardi"]
        }
      ]
    }
  ]
}

